GLOBALSTAR M096 [+]     
1 39075U 13005D   24058.92740175 -.00000109  00000+0 -28585-4 0  9990
2 39075  52.0048 237.2866 0000619  77.9556 282.1380 12.62273047511627
GLOBALSTAR M078 [+]     
1 39076U 13005E   24059.45565820 -.00000142  00000+0 -21322-3 0  9990
2 39076  51.9895 320.8382 0000717 173.2222 186.8654 12.62261478509960
GLOBALSTAR M095 [+]     
1 39077U 13005F   24059.40239235 -.00000070  00000+0  18861-3 0  9997
2 39077  51.9818 318.4298 0000074 132.3066 227.7807 12.62263817509811
